{
  "type": "FeatureCollection",
  "features": [
    {
      "type": "Feature",
      "properties": {
        "iso_a2": "FR",
        "name": "France"
      },
      "geometry": {
        "type": "Polygon",
        "coordinates": [[[2.0, 42.0], [8.0, 42.0], [8.0, 51.0], [2.0, 51.0], [2.0, 42.0]]]
      }
    },
    {
      "type": "Feature",
      "properties": {
        "iso_a2": "DE",
        "name": "Germany"
      },
      "geometry": {
        "type": "Polygon",
        "coordinates": [[[5.5, 47.0], [15.5, 47.0], [15.5, 55.1], [5.5, 55.1], [5.5, 47.0]]]
      }
    },
    {
      "type": "Feature",
      "properties": {
        "iso_a2": "US",
        "name": "United States"
      },
      "geometry": {
        "type": "Polygon",
        "coordinates": [[[-125.0, 24.0], [-66.0, 24.0], [-66.0, 49.0], [-125.0, 49.0], [-125.0, 24.0]]]
      }
    },
    {
      "type": "Feature",
      "properties": {
        "iso_a2": "JP",
        "name": "Japan"
      },
      "geometry": {
        "type": "Polygon",
        "coordinates": [[[129.0, 31.0], [146.0, 31.0], [146.0, 46.0], [129.0, 46.0], [129.0, 31.0]]]
      }
    },
    {
      "type": "Feature",
      "properties": {
        "iso_a2": "BR",
        "name": "Brazil"
      },
      "geometry": {
        "type": "Polygon",
        "coordinates": [[[-74.0, -34.0], [-34.0, -34.0], [-34.0, 6.0], [-74.0, 6.0], [-74.0, -34.0]]]
      }
    }
  ]
}
